LEASAT 5                
1 20410U 90002B   15224.97989080 -.00000096  00000-0  00000+0 0  9997
2 20410  11.2763  17.5912 0004645 185.9360 182.3290  1.00272953 78969
INTELSAT 701 (IS-701)   
1 22871U 93066A   15226.87303289 -.00000238  00000-0  00000+0 0  9993
2 22871   2.9058  70.7545 0002953  72.1094 104.8702  1.00270970 79662
INTELSAT 702 (IS-702)   
1 23124U 94034A   15226.15580481  .00000129  00000-0  00000+0 0  9991
2 23124   3.2498  69.1369 0001811  99.0627 243.0484  1.00273795 91669
INTELSAT 26 (IS-26)     
1 24732U 97007A   15224.97974596 -.00000032  00000-0  00000+0 0  9996
2 24732   6.3615  55.3179 0002927  92.3844 231.8754  1.00272470 67580
GALAXY 25 (G-25)        
1 24812U 97026A   15224.20011016 -.00000189  00000-0  00000+0 0  9994
2 24812   0.0140  71.3659 0003002  72.5788 155.3176  1.00271359 66623
INTELSAT 5 (IS-5)       
1 24916U 97046A   15226.83102197 -.00000162  00000-0  00000+0 0  9994
2 24916   2.2231  74.5624 0004103  48.2788 296.2531  1.00272043 65915
INTELSAT 805 (IS-805)   
1 25371U 98037A   15226.13262593 -.00000310  00000-0  10000-3 0  9991
2 25371   0.0532 268.8179 0002925 253.8126 151.8376  1.00272666 62858
INTELSAT 7 (IS-7)       
1 25473U 98052A   15226.35832285 -.00000167  00000-0  00000+0 0  9991
2 25473   1.8092  77.6099 0004198  90.7188 264.9157  1.00271407 61931
AFRISTAR                
1 25515U 98063A   15225.65058823  .00000101  00000-0  00000+0 0  9997
2 25515   1.9916  71.0112 0004411  65.8608  80.0942  1.00275107 61420
INTELSAT 8 (IS-8)       
1 25522U 98065A   15226.28398324 -.00000055  00000-0  00000+0 0  9999
2 25522   0.0474 264.1050 0002984 239.9906  89.5052  1.00272438 61421
GALAXY 27 (G-27)        
1 25922U 99052A   15223.84557543 -.00000032  00000-0  00000+0 0  9994
2 25922   1.8808  76.4759 0009631  57.8589 196.2262  1.00273368 58153
GALAXY 11 (G-11)        
1 26038U 99071A   15226.94207328 -.00000308  00000-0  00000+0 0  9997
2 26038   0.0734 275.9986 0001253 331.1789 359.3783  1.00273915 57406
SIRIUS-1                
1 26390U 00035A   15225.34684932  .00000060  00000-0  00000+0 0  9997
2 26390  59.7854 235.8708 2657639 269.2847 205.7627  1.00270895 55370
INTELSAT 9 (IS-9)       
1 26451U 00043A   15226.18377109 -.00000294  00000-0  00000+0 0  9992
2 26451   2.2067  74.8369 0002670  65.2413 205.2537  1.00274552 55134
SIRIUS-2                
1 26483U 00051A   15224.28937200 -.00000060  00000-0  00000+0 0  9990
2 26483  64.3904 115.7374 2715579 269.0211 305.1870  1.00267644 54706
INTELSAT 12 (IS-12)     
1 26590U 00068A   15223.60170006  .00000109  00000-0  00000+0 0  9998
2 26590   0.0317 255.1588 0003180 255.7462  70.4303  1.00273415 54067
INTELSAT 1R (IS-1R)     
1 26608U 00072A   15226.18864191 -.00000307  00000-0  00000+0 0  9995
2 26608   0.0457 270.7612 0000422 331.7922  97.6691  1.00271249 53956
SIRIUS-3                
1 26626U 00077A   15226.31419338 -.00000163  00000-0  00000+0 0  9994
2 26626  64.4954 355.4070 2663113 269.6694  74.5464  1.00283277 53855
XM-1 (ROLL)             
1 26761U 01018A   15226.18117444 -.00000047  00000-0  10000-3 0  9994
2 26761   0.1515 254.8154 0004517  27.3893 350.0288  1.00272787 52315
INTELSAT 10 (IS-10)     
1 26766U 01019A   15226.15787949  .00000102  00000-0  00000+0 0  9996
2 26766   0.1219  87.1789 0002160  72.0571 267.3462  1.00273504 52226
INTELSAT 901 (IS-901)   
1 26824U 01024A   15224.06558655 -.00000168  00000-0  00000+0 0  9998
2 26824   0.0394 277.0797 0002995 229.0220 179.6735  1.00270804 51894
INTELSAT 902 (IS-902)   
1 26900U 01039A   15224.84064898  .00000006  00000-0  00000+0 0  9996
2 26900   0.0130  92.1444 0003007  66.6198 166.8170  1.00272973 51054
DIRECTV 4S              
1 26985U 01052A   15225.85237429 -.00000138  00000-0  00000+0 0  9995
2 26985   0.0208 114.2408 0000931  35.1965  18.1859  1.00269632 50280
INTELSAT 904 (IS-904)   
1 27380U 02007A   15226.53415560  .00000025  00000-0  00000+0 0  9990
2 27380   0.0098 322.8884 0002848 181.0692  70.9464  1.00272729 49398
INTELSAT 903 (IS-903)   
1 27403U 02016A   15223.36338828 -.00000266  00000-0  00000+0 0  9993
2 27403   0.0286  23.7359 0003347 133.1135 258.9498  1.00271178 48911
DIRECTV 5 (TEMPO 1)     
1 27426U 02023A   15226.24533437 -.00000080  00000-0  00000+0 0  9993
2 27426   0.0152  98.2235 0003100  54.0441 148.2566  1.00271850 48617
INTELSAT 905 (IS-905)   
1 27438U 02027A   15224.15390927 -.00000212  00000-0  00000+0 0  9990
2 27438   0.0505 263.6951 0002104 254.6675 192.7930  1.00269004 48241
GALAXY 3C (G-3C)        
1 27445U 02030A   15225.21341016 -.00000177  00000-0  00000+0 0  9995
2 27445   0.0085  42.8567 0001407 309.4372 310.8002  1.00271693 48239
INTELSAT 906 (IS-906)   
1 27513U 02041A   15226.84796850 -.00000009  00000-0  00000+0 0  9997
2 27513   0.0353 289.3068 0003388 231.4928 171.5402  1.00273082 47282
INTELSAT 907 (IS-907)   
1 27683U 03007A   15225.07120781 -.00000229  00000-0  00000+0 0  9990
2 27683   0.0224  69.2343 0002831  84.0054 166.0619  1.00270622 45679
GALAXY 12 (G-12)        
1 27715U 03013B   15226.62998781  .00000035  00000-0  00000+0 0  9992
2 27715   0.0550 266.7396 0002815 264.4433 249.3221  1.00272645 45307
GALAXY 23 (G-23)        
1 27854U 03034A   15224.41198582 -.00000015  00000-0  00000+0 0  9994
2 27854   0.0258 100.1362 0002999  52.1179 195.5982  1.00279443 43893
GALAXY 13 (HORIZONS-1)  
1 27954U 03044A   15225.49213758  .00000022  00000-0  00000+0 0  9995
2 27954   0.0081 119.2789 0000585 121.3262 131.1358  1.00272436 43464
DIRECTV 7S              
1 28238U 04016A   15225.49233578 -.00000024  00000-0  00000+0 0  9996
2 28238   0.0565 286.8801 0002631 224.0584 228.8186  1.00271611 41369
INTELSAT 10-02          
1 28358U 04022A   15225.87655637 -.00000036  00000-0  00000+0 0  9995
2 28358   0.0134 128.5728 0003175  61.3613  86.6111  1.00273273 40917
XM-3 (RHYTHM)           
1 28626U 05008A   15226.42241512 -.00000229  00000-0  00000+0 0  9997
2 28626   0.0114 340.8954 0000392  13.2211  35.3538  1.00272016 38365
SPACEWAY 1              
1 28644U 05015A   15225.49272455 -.00000128  00000-0  00000+0 0  9999
2 28644   0.0474 269.7752 0000301   1.4456 124.8269  1.00273220 37800
DIRECTV 8               
1 28659U 05019A   15226.42204159 -.00000139  00000-0  00000+0 0  9991
2 28659   0.0206  84.2150 0003053  70.8658 218.5160  1.00269937 37487
GALAXY 28 (G-28)        
1 28702U 05022A   15225.33681911 -.00000211  00000-0  00000+0 0  9999
2 28702   0.0127  79.8781 0000254 173.5555 100.2457  1.00271009 37125
GALAXY 14 (G-14)        
1 28790U 05030A   15226.51079916  .00000013  00000-0  00000+0 0  9991
2 28790   0.0199 283.9037 0002241 221.8231 235.7725  1.00271432 36603
GALAXY 15 (G-15)        
1 28884U 05041A   15226.23566956  .00000055  00000-0  00000+0 0  9997
2 28884   0.0426 279.8837 0000959 251.8875 102.3762  1.00271299 35928
SPACEWAY 2              
1 28903U 05046B   15226.36747216 -.00000150  00000-0  00000+0 0  9995
2 28903   0.0042 237.0264 0000173  52.7465  65.8762  1.00272478 35782
GALAXY 16 (G-16)        
1 29236U 06023A   15226.56822763 -.00000151  00000-0  00000+0 0  9995
2 29236   0.0523 261.7031 0003331 249.1260 277.3798  1.00272033 33566
DIRECTV 9S              
1 29494U 06043A   15225.85503852 -.00000139  00000-0  00000+0 0  9995
2 29494   0.0228 123.8066 0002975  26.5863  18.2913  1.00270054 32391
XM-4 (BLUES)            
1 29520U 06049A   15225.46367432 -.00000049  00000-0  00000+0 0  9990
2 29520   0.0072 229.6807 0000557 343.6164 159.9607  1.00273322 32289
GALAXY 17 (G-17)        
1 31307U 07016B   15226.56195384 -.00000198  00000-0  00000+0 0  9993
2 31307   0.0266 359.2471 0002819 149.4195 285.2720  1.00271191 30375
DIRECTV 10              
1 31862U 07032A   15225.49272455 -.00000129  00000-0  00000+0 0  9997
2 31862   0.0105 273.2965 0000606 300.7888 182.0450  1.00275175 29692
SPACEWAY 3              
1 32018U 07036A   15225.21341198 -.00000177  00000-0  00000+0 0  9999
2 32018   0.0190  92.0253 0000338 150.3731  60.7822  1.00271708 29407
INTELSAT 11 (IS-11)     
1 32253U 07044B   15226.18377109 -.00000293  00000-0  00000+0 0  9996
2 32253   0.0604 265.6671 0002852 247.5956 192.1558  1.00271861 28811
HORIZONS-2              
1 32388U 07063B   15225.95024464 -.00000206  00000-0  00000+0 0  9997
2 32388   0.0187  90.2086 0002576  51.2450 247.5328  1.00267904 28172
DIRECTV 11              
1 32729U 08013A   15226.26269470 -.00000150  00000-0  00000+0 0  9993
2 32729   0.0078 317.1283 0000099 329.0422  31.5677  1.00272270 27228
GALAXY 18 (G-18)        
1 32951U 08024A   15223.26171950 -.00000002  00000-0  00000+0 0  9990
2 32951   0.0201 111.3456 0003284  45.7750 133.4811  1.00272891 26347
INTELSAT 25 (IS-25)     
1 33153U 08034A   15223.07794612 -.00000252  00000-0  00000+0 0  9998
2 33153   0.0484 267.8500 0003127 214.9153 192.9947  1.00270684 25904
GALAXY 19 (G-19)        
1 33376U 08045A   15224.49983792 -.00000166  00000-0  00000+0 0  9997
2 33376   0.0069  96.2944 0002936  57.3904 249.8730  1.00271867 25126
SIRIUS FM-5             
1 35493U 09034A   15224.41264140 -.00000172  00000-0  00000+0 0  9996
2 35493   0.0062  38.1237 0000570 286.0725  48.8737  1.00271664 22255
INTELSAT 14 (IS-14)     
1 36097U 09064A   15226.18554459 -.00000298  00000-0  00000+0 0  9990
2 36097   0.0107  79.4318 0001911  75.4859 189.1622  1.00273413 20997
INTELSAT 15 (IS-15)     
1 36106U 09067A   15226.79222455 -.00000207  00000-0  00000+0 0  9999
2 36106   0.0144 273.3633 0002125 238.6106 181.2508  1.00267419 20894
DIRECTV 12              
1 36131U 09075A   15225.30783731 -.00000129  00000-0  00000+0 0  9994
2 36131   0.0517 258.6395 0000229   2.8278  67.9584  1.00272383 20666
INTELSAT 16 (IS-16)     
1 36397U 10006A   15225.38646505 -.00000270  00000-0  00000+0 0  9996
2 36397   0.0272 282.5290 0001908 252.0719 209.7885  1.00269672 20030
XM-5                    
1 37185U 10053A   15225.22978988 -.00000231  00000-0  00000+0 0  9997
2 37185   0.0453 280.3952 0000381  71.2212 327.2235  1.00271039 17728
INTELSAT 17 (IS-17)     
1 37238U 10065B   15223.96787361 -.00000029  00000-0  00000+0 0  9996
2 37238   0.0148 247.7686 0002933 258.9895 227.7586  1.00272536 17192
INTELSAT NEW DAWN       
1 37392U 11016A   15226.73208780  .00000132  00000-0  00000+0 0  9999
2 37392   0.0540 272.2326 0000373 147.5253 199.3964  1.00274919 15830
INTELSAT 18 (IS-18)     
1 37834U 11056A   15222.49614747  .00000025  00000-0  00000+0 0  9998
2 37834   0.0163  74.0188 0002459  83.7952 159.4065  1.00270915 14122
INTELSAT 22 (IS-22)     
1 38098U 12011A   15226.59187821 -.00000082  00000-0  00000+0 0  9990
2 38098   0.0281  15.3457 0002136 149.8763  82.6227  1.00272024 12352
INTELSAT 19 (IS-19)     
1 38356U 12030A   15225.81669130 -.00000082  00000-0  00000+0 0  9990
2 38356   0.0426 273.9713 0002827 234.4460 273.4976  1.00271952 11808
INTELSAT 20 (IS-20)     
1 38740U 12043A   15226.02114052 -.00000049  00000-0  00000+0 0  9996
2 38740   0.0074 345.6786 0000584 241.7958 170.7484  1.00272594 11123
INTELSAT 21 (IS-21)     
1 38749U 12045A   15226.39949630 -.00000309  00000-0  00000+0 0  9994
2 38749   0.0104  58.7243 0002320 111.9418 237.6355  1.00271571 10937
INTELSAT 23 (IS-23)     
1 38867U 12057A   15222.43990715 -.00000312  00000-0  00000+0 0  9993
2 38867   0.0444 264.9812 0001495 235.8321 283.1245  1.00270865 10376
SIRIUS FM-6             
1 39360U 13058A   15225.49241200 -.00000043  00000-0  00000+0 0  9992
2 39360   0.0126  55.4587 0000942 252.9646  74.2815  1.00272366  6634
INTELSAT 30 (IS-30)     
1 40271U 14062A   15224.53010303 -.00000178  00000-0  00000+0 0  9992
2 40271   0.0107 122.0012 0001870  84.2000 210.2149  1.00270930  3040
